[{"OBJECT_NAME":"FENGYUN 1C DEB","OBJECT_ID":"1999-025CTN","EPOCH":"2026-04-04T13:16:32.956608","MEAN_MOTION":13.86805398,"ECCENTRICITY":0.0236483,"INCLINATION":101.6483,"RA_OF_ASC_NODE":196.0677,"ARG_OF_PERICENTER":319.4024,"MEAN_ANOMALY":38.9697,"EPHEMERIS_TYPE":0,"CLASSIFICATION_TYPE":"U","NORAD_CAT_ID":32168,"ELEMENT_SET_NO":999,"REV_AT_EPOCH":65043,"BSTAR":0.0038824536,"MEAN_MOTION_DOT":5.586e-5,"MEAN_MOTION_DDOT":0},{"OBJECT_NAME":"FENGYUN 1C DEB","OBJECT_ID":"1999-025CTP","EPOCH":"2026-04-05T12:03:39.239136","MEAN_MOTION":14.74725013,"ECCENTRICITY":0.00317847,"INCLINATION":98.5555,"RA_OF_ASC_NODE":294.9058,"ARG_OF_PERICENTER":125.464,"MEAN_ANOMALY":234.9541,"EPHEMERIS_TYPE":0,"CLASSIFICATION_TYPE":"U","NORAD_CAT_ID":32169,"ELEMENT_SET_NO":999,"REV_AT_EPOCH":98291,"BSTAR":0.004763368,"MEAN_MOTION_DOT":0.00032183,"MEAN_MOTION_DDOT":0},{"OBJECT_NAME":"FENGYUN 1C DEB","OBJECT_ID":"1999-025CTR","EPOCH":"2026-03-28T13:38:38.825952","MEAN_MOTION":13.43403439,"ECCENTRICITY":0.0478572,"INCLINATION":102.8039,"RA_OF_ASC_NODE":18.3008,"ARG_OF_PERICENTER":136.595,"MEAN_ANOMALY":40.1713,"EPHEMERIS_TYPE":0,"CLASSIFICATION_TYPE":"U","NORAD_CAT_ID":32171,"ELEMENT_SET_NO":999,"REV_AT_EPOCH":62036,"BSTAR":0.0028137,"MEAN_MOTION_DOT":3.145e-5,"MEAN_MOTION_DDOT":0},{"OBJECT_NAME":"FENGYUN 1C DEB","OBJECT_ID":"1999-025CTU","EPOCH":"2026-04-04T09:33:32.996448","MEAN_MOTION":14.18071801,"ECCENTRICITY":0.01491847,"INCLINATION":98.5811,"RA_OF_ASC_NODE":157.9705,"ARG_OF_PERICENTER":281.3437,"MEAN_ANOMALY":77.101,"EPHEMERIS_TYPE":0,"CLASSIFICATION_TYPE":"U","NORAD_CAT_ID":32174,"ELEMENT_SET_NO":999,"REV_AT_EPOCH":65702,"BSTAR":0.00031568947,"MEAN_MOTION_DOT":6.79e-6,"MEAN_MOTION_DDOT":0},{"OBJECT_NAME":"FENGYUN 1C DEB","OBJECT_ID":"1999-025CTV","EPOCH":"2026-04-02T05:48:55.018944","MEAN_MOTION":13.95628953,"ECCENTRICITY":0.01517731,"INCLINATION":98.8337,"RA_OF_ASC_NODE":81.1455,"ARG_OF_PERICENTER":19.2696,"MEAN_ANOMALY":341.4122,"EPHEMERIS_TYPE":0,"CLASSIFICATION_TYPE":"U","NORAD_CAT_ID":32175,"ELEMENT_SET_NO":999,"REV_AT_EPOCH":61381,"BSTAR":0.003684782,"MEAN_MOTION_DOT":5.484e-5,"MEAN_MOTION_DDOT":0},{"OBJECT_NAME":"FENGYUN 1C DEB","OBJECT_ID":"1999-025CTX","EPOCH":"2026-04-01T19:01:34.079520","MEAN_MOTION":14.57680336,"ECCENTRICITY":0.00513748,"INCLINATION":99.0376,"RA_OF_ASC_NODE":115.4158,"ARG_OF_PERICENTER":72.6369,"MEAN_ANOMALY":288.0437,"EPHEMERIS_TYPE":0,"CLASSIFICATION_TYPE":"U","NORAD_CAT_ID":32177,"ELEMENT_SET_NO":999,"REV_AT_EPOCH":72641,"BSTAR":0.0013351617,"MEAN_MOTION_DOT":6.152e-5,"MEAN_MOTION_DDOT":0},{"OBJECT_NAME":"FENGYUN 1C DEB","OBJECT_ID":"1999-025CTY","EPOCH":"2026-04-05T08:01:52.667904","MEAN_MOTION":14.23621928,"ECCENTRICITY":0.00932191,"INCLINATION":100.2992,"RA_OF_ASC_NODE":120.9829,"ARG_OF_PERICENTER":11.5361,"MEAN_ANOMALY":348.7919,"EPHEMERIS_TYPE":0,"CLASSIFICATION_TYPE":"U","NORAD_CAT_ID":32178,"ELEMENT_SET_NO":999,"REV_AT_EPOCH":65619,"BSTAR":0.0013648516,"MEAN_MOTION_DOT":3.197e-5,"MEAN_MOTION_DDOT":0},{"OBJECT_NAME":"FENGYUN 1C DEB","OBJECT_ID":"1999-025CTZ","EPOCH":"2026-04-05T10:11:41.823168","MEAN_MOTION":14.03765525,"ECCENTRICITY":0.01446251,"INCLINATION":98.8891,"RA_OF_ASC_NODE":146.9112,"ARG_OF_PERICENTER":232.7403,"MEAN_ANOMALY":142.7023,"EPHEMERIS_TYPE":0,"CLASSIFICATION_TYPE":"U","NORAD_CAT_ID":32179,"ELEMENT_SET_NO":999,"REV_AT_EPOCH":67323,"BSTAR":0.00040531527,"MEAN_MOTION_DOT":6.56e-6,"MEAN_MOTION_DDOT":0},{"OBJECT_NAME":"FENGYUN 1C DEB","OBJECT_ID":"1999-025CUA","EPOCH":"2026-04-05T02:23:54.047040","MEAN_MOTION":13.82358051,"ECCENTRICITY":0.01356171,"INCLINATION":99.566,"RA_OF_ASC_NODE":142.0525,"ARG_OF_PERICENTER":272.0584,"MEAN_ANOMALY":115.8179,"EPHEMERIS_TYPE":0,"CLASSIFICATION_TYPE":"U","NORAD_CAT_ID":32180,"ELEMENT_SET_NO":999,"REV_AT_EPOCH":95834,"BSTAR":0.00012099276,"MEAN_MOTION_DOT":9.3e-7,"MEAN_MOTION_DDOT":0},{"OBJECT_NAME":"FENGYUN 1C DEB","OBJECT_ID":"1999-025CUB","EPOCH":"2026-03-31T02:57:06.693696","MEAN_MOTION":14.57226838,"ECCENTRICITY":0.00729576,"INCLINATION":99.4752,"RA_OF_ASC_NODE":213.5754,"ARG_OF_PERICENTER":122.322,"MEAN_ANOMALY":52.3849,"EPHEMERIS_TYPE":0,"CLASSIFICATION_TYPE":"U","NORAD_CAT_ID":32181,"ELEMENT_SET_NO":999,"REV_AT_EPOCH":98298,"BSTAR":0.0014077145,"MEAN_MOTION_DOT":6.54e-5,"MEAN_MOTION_DDOT":0},{"OBJECT_NAME":"FENGYUN 1C DEB","OBJECT_ID":"1999-025CUD","EPOCH":"2026-04-04T02:42:14.790816","MEAN_MOTION":14.10384718,"ECCENTRICITY":0.00431147,"INCLINATION":98.6994,"RA_OF_ASC_NODE":146.7364,"ARG_OF_PERICENTER":102.1401,"MEAN_ANOMALY":258.4605,"EPHEMERIS_TYPE":0,"CLASSIFICATION_TYPE":"U","NORAD_CAT_ID":32183,"ELEMENT_SET_NO":999,"REV_AT_EPOCH":74348,"BSTAR":0.00089407905,"MEAN_MOTION_DOT":1.56e-5,"MEAN_MOTION_DDOT":0},{"OBJECT_NAME":"FENGYUN 1C DEB","OBJECT_ID":"1999-025CUF","EPOCH":"2026-04-04T14:35:22.385472","MEAN_MOTION":15.22033332,"ECCENTRICITY":0.0114903,"INCLINATION":98.8893,"RA_OF_ASC_NODE":324.4571,"ARG_OF_PERICENTER":0.7921,"MEAN_ANOMALY":359.3471,"EPHEMERIS_TYPE":0,"CLASSIFICATION_TYPE":"U","NORAD_CAT_ID":32185,"ELEMENT_SET_NO":999,"REV_AT_EPOCH":96721,"BSTAR":0.0040866,"MEAN_MOTION_DOT":0.00113431,"MEAN_MOTION_DDOT":0},{"OBJECT_NAME":"FENGYUN 1C DEB","OBJECT_ID":"1999-025CUG","EPOCH":"2026-04-05T09:40:33.157056","MEAN_MOTION":13.76782636,"ECCENTRICITY":0.02713491,"INCLINATION":99.594,"RA_OF_ASC_NODE":152.0468,"ARG_OF_PERICENTER":263.684,"MEAN_ANOMALY":113.605,"EPHEMERIS_TYPE":0,"CLASSIFICATION_TYPE":"U","NORAD_CAT_ID":32186,"ELEMENT_SET_NO":999,"REV_AT_EPOCH":64174,"BSTAR":0.0012078456,"MEAN_MOTION_DOT":1.51e-5,"MEAN_MOTION_DDOT":0},{"OBJECT_NAME":"FENGYUN 1C DEB","OBJECT_ID":"1999-025CUH","EPOCH":"2026-04-05T04:43:45.957216","MEAN_MOTION":13.50574195,"ECCENTRICITY":0.02929006,"INCLINATION":99.4894,"RA_OF_ASC_NODE":174.1634,"ARG_OF_PERICENTER":221.5721,"MEAN_ANOMALY":164.9073,"EPHEMERIS_TYPE":0,"CLASSIFICATION_TYPE":"U","NORAD_CAT_ID":32187,"ELEMENT_SET_NO":999,"REV_AT_EPOCH":67790,"BSTAR":0.00053648923,"MEAN_MOTION_DOT":4.07e-6,"MEAN_MOTION_DDOT":0},{"OBJECT_NAME":"FENGYUN 1C DEB","OBJECT_ID":"1999-025CUM","EPOCH":"2026-04-02T10:21:36.515232","MEAN_MOTION":14.25928838,"ECCENTRICITY":0.0091931,"INCLINATION":98.692,"RA_OF_ASC_NODE":152.702,"ARG_OF_PERICENTER":223.6251,"MEAN_ANOMALY":135.7636,"EPHEMERIS_TYPE":0,"CLASSIFICATION_TYPE":"U","NORAD_CAT_ID":32191,"ELEMENT_SET_NO":999,"REV_AT_EPOCH":66078,"BSTAR":0.0015458926,"MEAN_MOTION_DOT":3.808e-5,"MEAN_MOTION_DDOT":0},{"OBJECT_NAME":"FENGYUN 1C DEB","OBJECT_ID":"1999-025CUN","EPOCH":"2026-04-02T08:55:37.665408","MEAN_MOTION":13.82607209,"ECCENTRICITY":0.01807566,"INCLINATION":98.6419,"RA_OF_ASC_NODE":319.2948,"ARG_OF_PERICENTER":222.339,"MEAN_ANOMALY":136.3697,"EPHEMERIS_TYPE":0,"CLASSIFICATION_TYPE":"U","NORAD_CAT_ID":32192,"ELEMENT_SET_NO":999,"REV_AT_EPOCH":94241,"BSTAR":0.00035184477,"MEAN_MOTION_DOT":3.93e-6,"MEAN_MOTION_DDOT":0}]
