FENGYUN 1C DEB          
1 32168U 99025CTN 26094.55315922  .00005586  00000+0  38825-2 0  9999
2 32168 101.6483 196.0677 0236483 319.4024  38.9697 13.86805398650431
FENGYUN 1C DEB          
1 32169U 99025CTP 26095.50253749  .00032183  00000+0  47634-2 0  9995
2 32169  98.5555 294.9058 0031784 125.4640 234.9541 14.74725013982913
FENGYUN 1C DEB          
1 32171U 99025CTR 26087.56850493  .00003145  00000+0  28137-2 0  9997
2 32171 102.8039  18.3008 0478572 136.5950  40.1713 13.43403439620368
FENGYUN 1C DEB          
1 32174U 99025CTU 26094.39829857  .00000679  00000+0  31569-3 0  9992
2 32174  98.5811 157.9705 0149184 281.3437  77.1010 14.18071801657027
FENGYUN 1C DEB          
1 32175U 99025CTV 26092.24230346  .00005484  00000+0  36848-2 0  9997
2 32175  98.8337  81.1455 0151773  19.2696 341.4122 13.95628953613816
FENGYUN 1C DEB          
1 32177U 99025CTX 26091.79275555  .00006152  00000+0  13352-2 0  9997
2 32177  99.0376 115.4158 0051374  72.6369 288.0437 14.57680336726419
FENGYUN 1C DEB          
1 32178U 99025CTY 26095.33463736  .00003197  00000+0  13649-2 0  9997
2 32178 100.2992 120.9829 0093219  11.5361 348.7919 14.23621928656194
FENGYUN 1C DEB          
1 32179U 99025CTZ 26095.42478962  .00000656  00000+0  40532-3 0  9994
2 32179  98.8891 146.9112 0144625 232.7403 142.7023 14.03765525673232
FENGYUN 1C DEB          
1 32180U 99025CUA 26095.09993110  .00000093  00000+0  12099-3 0  9998
2 32180  99.5660 142.0525 0135617 272.0584 115.8179 13.82358051958348
FENGYUN 1C DEB          
1 32181U 99025CUB 26090.12299414  .00006540  00000+0  14077-2 0  9994
2 32181  99.4752 213.5754 0072957 122.3220  52.3849 14.57226838982985
FENGYUN 1C DEB          
1 32183U 99025CUD 26094.11267119  .00001560  00000+0  89408-3 0  9994
2 32183  98.6994 146.7364 0043114 102.1401 258.4605 14.10384718743480
FENGYUN 1C DEB          
1 32185U 99025CUF 26094.60789798  .00113431  00000+0  40866-2 0  9997
2 32185  98.8893 324.4571 0114903   0.7921 359.3471 15.22033332967210
FENGYUN 1C DEB          
1 32186U 99025CUG 26095.40316154  .00001510  00000+0  12078-2 0  9997
2 32186  99.5940 152.0468 0271349 263.6840 113.6050 13.76782636641746
FENGYUN 1C DEB          
1 32187U 99025CUH 26095.19705969  .00000407  00000+0  53649-3 0  9994
2 32187  99.4894 174.1634 0292900 221.5721 164.9073 13.50574195677903
FENGYUN 1C DEB          
1 32191U 99025CUM 26092.43167263  .00003808  00000+0  15459-2 0  9996
2 32191  98.6920 152.7020 0091931 223.6251 135.7636 14.25928838660781
FENGYUN 1C DEB          
1 32192U 99025CUN 26092.37196372  .00000393  00000+0  35184-3 0  9997
2 32192  98.6419 319.2948 0180756 222.3390 136.3697 13.82607209942413
